{"type": "FeatureCollection", "features": [ {"type": "Feature", "properties": {"norad_id": 30411, "name": "FENGYUN 1C DEB", "group": "fengyun-1c-debris", "lat": 23.464125955635204, "lon": 90.30456780709463, "alt_km": 845.2431171665266, "timestamp": "2025-12-22T09:53:37.677731+00:00", "meta": {"OBJECT_NAME": "FENGYUN 1C DEB", "OBJECT_ID": "1999-025AEA", "EPOCH": "2025-12-21T05:52:25.332096", "MEAN_MOTION": 14.07693205, "ECCENTRICITY": 0.0123436, "INCLINATION": 98.5818, "RA_OF_ASC_NODE": 265.4366, "ARG_OF_PERICENTER": 82.6484, "MEAN_ANOMALY": 278.8695, "EPHEMERIS_TYPE": 0, "CLASSIFICATION_TYPE": "U", "NORAD_CAT_ID": 30411, "ELEMENT_SET_NO": 999, "REV_AT_EPOCH": 96103, "BSTAR": 0.0014069, "MEAN_MOTION_DOT": 2.511e-05, "MEAN_MOTION_DDOT": 0}, "tle": {"line1": "1 30411U 99025AEA 25355.24473764  .00002511  00000+0  14069-2 0  9991", "line2": "2 30411  98.5818 265.4366 0123436  82.6484 278.8695 14.07693205961034"}}, "geometry": {"type": "Point", "coordinates": [90.30456780709463, 23.464125955635204]}}, {"type": "Feature", "properties": {"norad_id": 30413, "name": "FENGYUN 1C DEB", "group": "fengyun-1c-debris", "lat": -21.441662498468464, "lon": -122.1343137332645, "alt_km": 814.8269957734537, "timestamp": "2025-12-22T09:53:37.677740+00:00", "meta": {"OBJECT_NAME": "FENGYUN 1C DEB", "OBJECT_ID": "1999-025AEC", "EPOCH": "2025-12-22T03:59:47.840352", "MEAN_MOTION": 14.32630645, "ECCENTRICITY": 0.0044453, "INCLINATION": 102.0625, "RA_OF_ASC_NODE": 232.7076, "ARG_OF_PERICENTER": 191.4806, "MEAN_ANOMALY": 319.7702, "EPHEMERIS_TYPE": 0, "CLASSIFICATION_TYPE": "U", "NORAD_CAT_ID": 30413, "ELEMENT_SET_NO": 999, "REV_AT_EPOCH": 97274, "BSTAR": 0.0021014, "MEAN_MOTION_DOT": 5.704e-05, "MEAN_MOTION_DDOT": 0}, "tle": {"line1": "1 30413U 99025AEC 25356.16652593  .00005704  00000+0  21014-2 0  9999", "line2": "2 30413 102.0625 232.7076 0044453 191.4806 319.7702 14.32630645972747"}}, "geometry": {"type": "Point", "coordinates": [-122.1343137332645, -21.441662498468464]}}, {"type": "Feature", "properties": {"norad_id": 30414, "name": "FENGYUN 1C DEB", "group": "fengyun-1c-debris", "lat": 59.401935309177674, "lon": -10.16287649352941, "alt_km": 740.555719155318, "timestamp": "2025-12-22T09:53:37.677750+00:00", "meta": {"OBJECT_NAME": "FENGYUN 1C DEB", "OBJECT_ID": "1999-025AED", "EPOCH": "2025-12-21T21:37:06.959136", "MEAN_MOTION": 14.34272085, "ECCENTRICITY": 0.0058039, "INCLINATION": 99.0803, "RA_OF_ASC_NODE": 153.6098, "ARG_OF_PERICENTER": 162.4907, "MEAN_ANOMALY": 197.8295, "EPHEMERIS_TYPE": 0, "CLASSIFICATION_TYPE": "U", "NORAD_CAT_ID": 30414, "ELEMENT_SET_NO": 999, "REV_AT_EPOCH": 97218, "BSTAR": 0.0023584, "MEAN_MOTION_DOT": 6.705e-05, "MEAN_MOTION_DDOT": 0}, "tle": {"line1": "1 30414U 99025AED 25355.90077499  .00006705  00000+0  23584-2 0  9993", "line2": "2 30414  99.0803 153.6098 0058039 162.4907 197.8295 14.34272085972183"}}, "geometry": {"type": "Point", "coordinates": [-10.16287649352941, 59.401935309177674]}}, {"type": "Feature", "properties": {"norad_id": 30415, "name": "FENGYUN 1C DEB", "group": "fengyun-1c-debris", "lat": 80.05847101948386, "lon": -47.34599295895369, "alt_km": 1151.4842124976594, "timestamp": "2025-12-22T09:53:37.677760+00:00", "meta": {"OBJECT_NAME": "FENGYUN 1C DEB", "OBJECT_ID": "1999-025AEE", "EPOCH": "2025-12-21T19:43:39.873792", "MEAN_MOTION": 13.68961318, "ECCENTRICITY": 0.0239956, "INCLINATION": 99.6454, "RA_OF_ASC_NODE": 56.0805, "ARG_OF_PERICENTER": 246.0256, "MEAN_ANOMALY": 180.2717, "EPHEMERIS_TYPE": 0, "CLASSIFICATION_TYPE": "U", "NORAD_CAT_ID": 30415, "ELEMENT_SET_NO": 999, "REV_AT_EPOCH": 94002, "BSTAR": 0.0012057, "MEAN_MOTION_DOT": 1.226e-05, "MEAN_MOTION_DDOT": 0}, "tle": {"line1": "1 30415U 99025AEE 25355.82198928  .00001226  00000+0  12057-2 0  9992", "line2": "2 30415  99.6454  56.0805 0239956 246.0256 180.2717 13.68961318940022"}}, "geometry": {"type": "Point", "coordinates": [-47.34599295895369, 80.05847101948386]}}, {"type": "Feature", "properties": {"norad_id": 30416, "name": "FENGYUN 1C DEB", "group": "fengyun-1c-debris", "lat": -57.600926756562195, "lon": 34.71926370980646, "alt_km": 921.8963286222679, "timestamp": "2025-12-22T09:53:37.677770+00:00", "meta": {"OBJECT_NAME": "FENGYUN 1C DEB", "OBJECT_ID": "1999-025AEF", "EPOCH": "2025-12-21T18:46:04.927008", "MEAN_MOTION": 14.02642911, "ECCENTRICITY": 0.0055759, "INCLINATION": 98.8353, "RA_OF_ASC_NODE": 19.9205, "ARG_OF_PERICENTER": 164.7092, "MEAN_ANOMALY": 195.5775, "EPHEMERIS_TYPE": 0, "CLASSIFICATION_TYPE": "U", "NORAD_CAT_ID": 30416, "ELEMENT_SET_NO": 999, "REV_AT_EPOCH": 96751, "BSTAR": 0.00040894, "MEAN_MOTION_DOT": 5.97e-06, "MEAN_MOTION_DDOT": 0}, "tle": {"line1": "1 30416U 99025AEF 25355.78200147  .00000597  00000+0  40894-3 0  9996", "line2": "2 30416  98.8353  19.9205 0055759 164.7092 195.5775 14.02642911967515"}}, "geometry": {"type": "Point", "coordinates": [34.71926370980646, -57.600926756562195]}}, {"type": "Feature", "properties": {"norad_id": 30417, "name": "FENGYUN 1C DEB", "group": "fengyun-1c-debris", "lat": -36.75181049384247, "lon": 159.58070513533158, "alt_km": 875.9263104153397, "timestamp": "2025-12-22T09:53:37.677779+00:00", "meta": {"OBJECT_NAME": "FENGYUN 1C DEB", "OBJECT_ID": "1999-025AEG", "EPOCH": "2025-12-21T22:57:06.638976", "MEAN_MOTION": 14.14672455, "ECCENTRICITY": 0.0064641, "INCLINATION": 98.6935, "RA_OF_ASC_NODE": 345.6977, "ARG_OF_PERICENTER": 94.005, "MEAN_ANOMALY": 321.9446, "EPHEMERIS_TYPE": 0, "CLASSIFICATION_TYPE": "U", "NORAD_CAT_ID": 30417, "ELEMENT_SET_NO": 999, "REV_AT_EPOCH": 97519, "BSTAR": 0.00024899, "MEAN_MOTION_DOT": 4.46e-06, "MEAN_MOTION_DDOT": 0}, "tle": {"line1": "1 30417U 99025AEG 25355.95632684  .00000446  00000+0  24899-3 0  9991", "line2": "2 30417  98.6935 345.6977 0064641  94.0050 321.9446 14.14672455975196"}}, "geometry": {"type": "Point", "coordinates": [159.58070513533158, -36.75181049384247]}}, {"type": "Feature", "properties": {"norad_id": 30418, "name": "FENGYUN 1C DEB", "group": "fengyun-1c-debris", "lat": -73.81268948039431, "lon": -55.18352298890834, "alt_km": 699.7906258152598, "timestamp": "2025-12-22T09:53:37.677789+00:00", "meta": {"OBJECT_NAME": "FENGYUN 1C DEB", "OBJECT_ID": "1999-025AEH", "EPOCH": "2025-12-21T10:21:35.438688", "MEAN_MOTION": 14.84318294, "ECCENTRICITY": 0.01110897, "INCLINATION": 98.8407, "RA_OF_ASC_NODE": 156.1531, "ARG_OF_PERICENTER": 88.0796, "MEAN_ANOMALY": 331.4076, "EPHEMERIS_TYPE": 0, "CLASSIFICATION_TYPE": "U", "NORAD_CAT_ID": 30418, "ELEMENT_SET_NO": 999, "REV_AT_EPOCH": 721, "BSTAR": 0.00054418279, "MEAN_MOTION_DOT": 5.026e-05, "MEAN_MOTION_DDOT": 0}, "tle": {"line1": "1 30418U 99025AEH 25355.43166017  .00005026  00000+0  54418-3 0  9996", "line2": "2 30418  98.8407 156.1531 0111089  88.0796 331.4076 14.84318294  7212"}}, "geometry": {"type": "Point", "coordinates": [-55.18352298890834, -73.81268948039431]}}, {"type": "Feature", "properties": {"norad_id": 30419, "name": "FENGYUN 1C DEB", "group": "fengyun-1c-debris", "lat": -36.58406791970958, "lon": 116.65153084647011, "alt_km": 867.725932389505, "timestamp": "2025-12-22T09:53:37.677799+00:00", "meta": {"OBJECT_NAME": "FENGYUN 1C DEB", "OBJECT_ID": "1999-025AEJ", "EPOCH": "2025-12-21T19:27:49.224096", "MEAN_MOTION": 14.18067409, "ECCENTRICITY": 0.0052825, "INCLINATION": 99.2416, "RA_OF_ASC_NODE": 302.9669, "ARG_OF_PERICENTER": 359.839, "MEAN_ANOMALY": 29.8525, "EPHEMERIS_TYPE": 0, "CLASSIFICATION_TYPE": "U", "NORAD_CAT_ID": 30419, "ELEMENT_SET_NO": 999, "REV_AT_EPOCH": 97477, "BSTAR": 0.00068368, "MEAN_MOTION_DOT": 1.373e-05, "MEAN_MOTION_DDOT": 0}, "tle": {"line1": "1 30419U 99025AEJ 25355.81098639  .00001373  00000+0  68368-3 0  9993", "line2": "2 30419  99.2416 302.9669 0052825 359.8390  29.8525 14.18067409974779"}}, "geometry": {"type": "Point", "coordinates": [116.65153084647011, -36.58406791970958]}}, {"type": "Feature", "properties": {"norad_id": 30432, "name": "FENGYUN 1C DEB", "group": "fengyun-1c-debris", "lat": -78.99852943656674, "lon": -51.25653069016936, "alt_km": 714.3100063615284, "timestamp": "2025-12-22T09:53:37.677809+00:00", "meta": {"OBJECT_NAME": "FENGYUN 1C DEB", "OBJECT_ID": "1999-025AET", "EPOCH": "2025-12-22T03:36:27.690336", "MEAN_MOTION": 14.4071992, "ECCENTRICITY": 0.0082449, "INCLINATION": 98.8359, "RA_OF_ASC_NODE": 255.3305, "ARG_OF_PERICENTER": 311.0124, "MEAN_ANOMALY": 48.3954, "EPHEMERIS_TYPE": 0, "CLASSIFICATION_TYPE": "U", "NORAD_CAT_ID": 30432, "ELEMENT_SET_NO": 999, "REV_AT_EPOCH": 98870, "BSTAR": 0.00060729, "MEAN_MOTION_DOT": 1.971e-05, "MEAN_MOTION_DDOT": 0}, "tle": {"line1": "1 30432U 99025AET 25356.15032049  .00001971  00000+0  60729-3 0  9996", "line2": "2 30432  98.8359 255.3305 0082449 311.0124  48.3954 14.40719920988700"}}, "geometry": {"type": "Point", "coordinates": [-51.25653069016936, -78.99852943656674]}}, {"type": "Feature", "properties": {"norad_id": 30434, "name": "FENGYUN 1C DEB", "group": "fengyun-1c-debris", "lat": 52.32105062432612, "lon": 174.7674817001804, "alt_km": 902.106719769602, "timestamp": "2025-12-22T09:53:37.677818+00:00", "meta": {"OBJECT_NAME": "FENGYUN 1C DEB", "OBJECT_ID": "1999-025AEV", "EPOCH": "2025-12-21T18:35:04.019712", "MEAN_MOTION": 13.90658292, "ECCENTRICITY": 0.0121034, "INCLINATION": 98.9999, "RA_OF_ASC_NODE": 342.3081, "ARG_OF_PERICENTER": 206.5006, "MEAN_ANOMALY": 329.7568, "EPHEMERIS_TYPE": 0, "CLASSIFICATION_TYPE": "U", "NORAD_CAT_ID": 30434, "ELEMENT_SET_NO": 999, "REV_AT_EPOCH": 95832, "BSTAR": 0.00027168, "MEAN_MOTION_DOT": 3.17e-06, "MEAN_MOTION_DDOT": 0}, "tle": {"line1": "1 30434U 99025AEV 25355.77435208  .00000317  00000+0  27168-3 0  9992", "line2": "2 30434  98.9999 342.3081 0121034 206.5006 329.7568 13.90658292958322"}}, "geometry": {"type": "Point", "coordinates": [174.7674817001804, 52.32105062432612]}}]}